NORAD_CAT_ID,OBJECT_NAME,OBJECT_TYPE,EPOCH,MEAN_MOTION,ECCENTRICITY,INCLINATION,RA_OF_ASC_NODE,ARG_OF_PERICENTER,MEAN_ANOMALY,BSTAR,MEAN_MOTION_DOT,MEAN_MOTION_DDOT,TLE_LINE0,TLE_LINE1,TLE_LINE2,SEMIMAJOR_AXIS,PERIOD,APOGEE,PERIGEE,DECAYED
55428.0,STARLINK-5064,PAYLOAD,2024-06-08 12:05:10,14.98346853,0.0002922,70.001,256.2559,267.5916,92.4908,0.0002129,2.449e-05,0.0,0 STARLINK-5064,1 55428U 23014AP  24160.50359142  .00002449  00000-0  21290-3 0  9992,2 55428  70.0010 256.2559 0002922 267.5916  92.4908 14.98346853 75813,6950.141,96.106,574.037,569.975,0.0
55428.0,STARLINK-5064,PAYLOAD,2024-06-08 16:53:30,14.98422819,0.0002979,70.0006,255.7503,273.4762,86.6057,0.0015587,0.00018599,0.0,0 STARLINK-5064,1 55428U 23014AP  24160.70382494  .00018599  00000-0  15587-2 0  9994,2 55428  70.0006 255.7503 0002979 273.4762  86.6057 14.98422819 74904,6949.906,96.101,573.841,569.7,0.0
55428.0,STARLINK-5064,PAYLOAD,2024-06-08 23:18:04,14.98379402,0.0001846,70.0008,255.0754,288.1603,71.9355,0.00067863,8.024e-05,0.0,0 STARLINK-5064,1 55428U 23014AP  24160.97088254  .00008024  00000-0  67863-3 0  9997,2 55428  70.0008 255.0754 0001846 288.1603  71.9355 14.98379402 74947,6950.04,96.104,573.188,570.622,0.0
55428.0,STARLINK-5064,PAYLOAD,2024-06-09 10:31:03,14.98307232,0.000299,70.0008,253.8996,264.2252,95.8566,-0.00072174,-8.689e-05,0.0,0 STARLINK-5064,1 55428U 23014AP  24161.43823445 -.00008689  00000-0 -72174-3 0  9998,2 55428  70.0008 253.8996 0002990 264.2252  95.8566 14.98307232 75017,6950.263,96.108,574.206,570.05,0.0
55428.0,STARLINK-5064,PAYLOAD,2024-06-10 05:44:40,14.9831847,0.0003047,70.0004,251.8794,266.2355,93.8456,-0.00033354,-4.069e-05,0.0,0 STARLINK-5064,1 55428U 23014AP  24162.23935521 -.00004069  00000-0 -33354-3 0  9991,2 55428  70.0004 251.8794 0003047 266.2355  93.8456 14.98318470 75132,6950.229,96.108,574.211,569.976,0.0
55428.0,STARLINK-5064,PAYLOAD,2024-06-10 13:45:21,14.98313009,0.0003152,70.0003,251.0376,267.6251,92.4548,0.0008834,0.00010459,0.0,0 STARLINK-5064,1 55428U 23014AP  24162.57316078  .00010459  00000-0  88340-3 0  9991,2 55428  70.0003 251.0376 0003152 267.6251  92.4548 14.98313009 76126,6950.245,96.108,574.301,569.92,0.0
55428.0,STARLINK-5064,PAYLOAD,2024-06-10 15:21:29,14.98314603,0.000318,70.0003,250.8693,266.229,93.8505,0.0014361,0.00017077,0.0,0 STARLINK-5064,1 55428U 23014AP  24162.63992389  .00017077  00000-0  14361-2 0  9997,2 55428  70.0003 250.8693 0003180 266.2290  93.8505 14.98314603 76134,6950.241,96.108,574.316,569.895,0.0
55428.0,STARLINK-5064,PAYLOAD,2024-06-10 23:22:09,14.98331512,0.0003239,70.0001,250.0276,266.8083,93.2705,0.0017429,0.00020766,0.0,0 STARLINK-5064,1 55428U 23014AP  24162.97372489  .00020766  00000-0  17429-2 0  9994,2 55428  70.0001 250.0276 0003239 266.8083  93.2705 14.98331512 75247,6950.188,96.107,574.304,569.802,0.0
55428.0,STARLINK-5064,PAYLOAD,2024-06-11 13:47:22,14.9835187,0.000329,69.9999,248.5126,266.8468,93.2315,0.0016416,0.0001956,0.0,0 STARLINK-5064,1 55428U 23014AP  24163.57456081  .00019560  00000-0  16416-2 0  9997,2 55428  69.9999 248.5126 0003290 266.8468  93.2315 14.98351870 76270,6950.125,96.106,574.277,569.704,0.0
55428.0,STARLINK-5064,PAYLOAD,2024-06-12 05:48:42,14.98346447,0.0002486,70.0002,246.8299,276.7296,83.358,0.00085334,0.00010108,0.0,0 STARLINK-5064,1 55428U 23014AP  24164.24216131  .00010108  00000-0  85334-3 0  9997,2 55428  70.0002 246.8299 0002486 276.7296  83.3580 14.98346447 75430,6950.142,96.106,573.735,570.279,0.0
55428.0,STARLINK-5064,PAYLOAD,2024-06-12 12:13:15,14.98329853,0.0003179,70.0002,246.156,270.0197,90.0598,6.7964e-05,7.18e-06,0.0,0 STARLINK-5064,1 55428U 23014AP  24164.50920267  .00000718  00000-0  67964-4 0  9994,2 55428  70.0002 246.1560 0003179 270.0197  90.0598 14.98329853 75471,6950.193,96.107,574.268,569.849,0.0
55428.0,STARLINK-5064,PAYLOAD,2024-06-12 15:25:31,14.98329977,0.0003398,70.0,245.8202,269.7372,90.3397,0.000185,2.115e-05,0.0,0 STARLINK-5064,1 55428U 23014AP  24164.64272308  .00002115  00000-0  18500-3 0  9999,2 55428  70.0000 245.8202 0003398 269.7372  90.3397 14.98329977 76435,6950.193,96.107,574.42,569.696,0.0
55428.0,STARLINK-5064,PAYLOAD,2024-06-13 12:15:15,14.98340969,0.0003129,70.0006,243.6317,268.9178,91.1623,0.00029965,3.485e-05,0.0,0 STARLINK-5064,1 55428U 23014AP  24165.51059839  .00003485  00000-0  29965-3 0  9996,2 55428  70.0006 243.6317 0003129 268.9178  91.1623 14.98340969 75626,6950.159,96.106,574.199,569.849,0.0
55428.0,STARLINK-5064,PAYLOAD,2024-06-13 13:51:23,14.98340591,0.0003161,70.0006,243.4634,269.9419,90.1378,0.00027687,3.213e-05,0.0,0 STARLINK-5064,1 55428U 23014AP  24165.57735811  .00003213  00000-0  27687-3 0  9991,2 55428  70.0006 243.4634 0003161 269.9419  90.1378 14.98340591 76573,6950.16,96.106,574.222,569.828,0.0
55428.0,STARLINK-5064,PAYLOAD,2024-06-13 15:27:31,14.98341821,0.0003136,70.0004,243.295,269.2113,90.8687,0.00022368,2.578e-05,0.0,0 STARLINK-5064,1 55428U 23014AP  24165.64411661  .00002578  00000-0  22368-3 0  9997,2 55428  70.0004 243.2950 0003136 269.2113  90.8687 14.98341821 76584,6950.156,96.106,574.201,569.842,0.0
55428.0,STARLINK-5064,PAYLOAD,2024-06-14 13:53:25,14.98330318,0.0003123,70.0007,240.9389,269.9953,90.0848,0.0001331,1.495e-05,0.0,0 STARLINK-5064,1 55428U 23014AP  24166.57876189  .00001495  00000-0  13310-3 0  9994,2 55428  70.0007 240.9389 0003123 269.9953  90.0848 14.98330318 76728,6950.192,96.107,574.227,569.886,0.0
55428.0,STARLINK-5064,PAYLOAD,2024-06-14 15:29:33,14.98330715,0.0003127,70.0007,240.7706,270.0401,90.0399,0.00013316,1.496e-05,0.0,0 STARLINK-5064,1 55428U 23014AP  24166.64552172  .00001496  00000-0  13316-3 0  9992,2 55428  70.0007 240.7706 0003127 270.0401  90.0399 14.98330715 76737,6950.191,96.107,574.229,569.882,0.0
55428.0,STARLINK-5064,PAYLOAD,2024-06-15 13:55:25,14.9834246,0.0003067,69.9996,238.4141,269.5127,90.5681,0.0001046,1.156e-05,0.0,0 STARLINK-5064,1 55428U 23014AP  24167.58015238  .00001156  00000-0  10460-3 0  9993,2 55428  69.9996 238.4141 0003067 269.5127  90.5681 14.98342460 76873,6950.154,96.106,574.151,569.888,0.0
55428.0,STARLINK-5064,PAYLOAD,2024-06-15 21:56:05,14.98338086,0.0003011,69.9997,237.5725,268.6418,91.4396,0.00010321,1.139e-05,0.0,0 STARLINK-5064,1 55428U 23014AP  24167.91395343  .00001139  00000-0  10321-3 0  9995,2 55428  69.9997 237.5725 0003011 268.6418  91.4396 14.98338086 76922,6950.168,96.106,574.126,569.94,0.0
55428.0,STARLINK-5064,PAYLOAD,2024-06-16 13:57:26,14.98330845,0.0003103,69.9993,235.8886,267.0663,93.0141,8.8915e-05,9.68e-06,0.0,0 STARLINK-5064,1 55428U 23014AP  24168.58155678  .00000968  00000-0  88915-4 0  9998,2 55428  69.9993 235.8886 0003103 267.0663  93.0141 14.98330845 77027,6950.19,96.107,574.212,569.899,0.0
55428.0,STARLINK-5064,PAYLOAD,2024-06-16 21:58:06,14.98330355,0.0003169,69.999,235.0465,266.3577,93.722,0.00010355,1.143e-05,0.0,0 STARLINK-5064,1 55428U 23014AP  24168.91535624  .00001143  00000-0  10355-3 0  9996,2 55428  69.9990 235.0465 0003169 266.3577  93.7220 14.98330355 77073,6950.192,96.107,574.259,569.854,0.0
55428.0,STARLINK-5064,PAYLOAD,2024-06-17 22:00:07,14.98332988,0.0003227,69.9988,232.5217,268.3891,91.6898,-3.2074e-05,-4.76e-06,0.0,0 STARLINK-5064,1 55428U 23014AP  24169.91675503 -.00000476  00000-0 -32074-4 0  9991,2 55428  69.9988 232.5217 0003227 268.3891  91.6898 14.98332988 77222,6950.184,96.107,574.291,569.806,0.0
55428.0,STARLINK-5064,PAYLOAD,2024-06-18 12:25:20,14.98331193,0.0003351,69.9984,231.0067,269.0862,90.9913,3.4114e-05,3.14e-06,0.0,0 STARLINK-5064,1 55428U 23014AP  24170.51759499  .00000314  00000-0  34114-4 0  9992,2 55428  69.9984 231.0067 0003351 269.0862  90.9913 14.98331193 76371,6950.189,96.107,574.383,569.725,0.0
55428.0,STARLINK-5064,PAYLOAD,2024-06-18 14:01:28,14.98332173,0.0003348,69.9984,230.8383,269.0931,90.9844,4.4301e-05,4.36e-06,0.0,0 STARLINK-5064,1 55428U 23014AP  24170.58435406  .00000436  00000-0  44301-4 0  9992,2 55428  69.9984 230.8383 0003348 269.0931  90.9844 14.98332173 77320,6950.186,96.107,574.378,569.724,0.0
55428.0,STARLINK-5064,PAYLOAD,2024-06-19 12:27:21,14.98330795,0.0003347,69.9985,228.482,269.2907,90.7868,9.2595e-05,1.012e-05,0.0,0 STARLINK-5064,1 55428U 23014AP  24171.51899434  .00001012  00000-0  92595-4 0  9990,2 55428  69.9985 228.4820 0003347 269.2907  90.7868 14.98330795 76527,6950.19,96.107,574.382,569.729,0.0
55428.0,STARLINK-5064,PAYLOAD,2024-06-19 14:03:29,14.98331265,0.0003344,69.9986,228.3137,269.295,90.7826,9.6354e-05,1.057e-05,0.0,0 STARLINK-5064,1 55428U 23014AP  24171.58575396  .00001057  00000-0  96354-4 0  9991,2 55428  69.9986 228.3137 0003344 269.2950  90.7826 14.98331265 77475,6950.189,96.107,574.378,569.73,0.0
55428.0,STARLINK-5064,PAYLOAD,2024-06-20 14:05:30,14.98331657,0.0003216,69.999,225.7894,268.3343,91.7448,5.6423e-05,5.8e-06,0.0,0 STARLINK-5064,1 55428U 23014AP  24172.58715482  .00000580  00000-0  56423-4 0  9997,2 55428  69.9990 225.7894 0003216 268.3343  91.7448 14.98331657 77628,6950.188,96.107,574.288,569.818,0.0
55428.0,STARLINK-5064,PAYLOAD,2024-06-21 14:07:30,14.98333125,0.0003246,69.9989,223.2643,268.6939,91.3848,3.7009e-05,3.49e-06,0.0,0 STARLINK-5064,1 55428U 23014AP  24173.58855319  .00000349  00000-0  37009-4 0  9994,2 55428  69.9989 223.2643 0003246 268.6939  91.3848 14.98333125 77776,6950.183,96.107,574.304,569.792,0.0
55428.0,STARLINK-5064,PAYLOAD,2024-06-22 12:33:24,14.9832847,0.0003279,69.9988,220.9072,269.9395,90.1388,-1.8483e-06,-1.15e-06,0.0,0 STARLINK-5064,1 55428U 23014AP  24174.52319711 -.00000115  00000-0 -18483-5 0  9999,2 55428  69.9988 220.9072 0003279 269.9395  90.1388 14.98328470 76975,6950.198,96.107,574.342,569.784,0.0
55428.0,STARLINK-5064,PAYLOAD,2024-06-23 04:34:46,14.98310054,0.0003407,69.9988,219.2246,267.2093,92.8676,-0.00017486,-2.178e-05,0.0,0 STARLINK-5064,1 55428U 23014AP  24175.19081812 -.00002178  00000-0 -17486-3 0  9992,2 55428  69.9988 219.2246 0003407 267.2093  92.8676 14.98310054 77078,6950.255,96.108,574.488,569.752,0.0
